[{"OBJECT_NAME":"STARLINK-35774","OBJECT_ID":"2025-247U","EPOCH":"2026-03-09T15:15:31.901760","MEAN_MOTION":15.30182502,"ECCENTRICITY":0.0001097,"INCLINATION":53.1571,"RA_OF_ASC_NODE":191.8153,"ARG_OF_PERICENTER":84.7187,"MEAN_ANOMALY":275.3939,"EPHEMERIS_TYPE":0,"CLASSIFICATION_TYPE":"U","NORAD_CAT_ID":66283,"ELEMENT_SET_NO":999,"REV_AT_EPOCH":2102,"BSTAR":0.00082924,"MEAN_MOTION_DOT":0.00024267,"MEAN_MOTION_DDOT":0},{"OBJECT_NAME":"DMSP 5D-2 F13 DEB","OBJECT_ID":"1995-015HL","EPOCH":"2026-02-09T02:06:19.247328","MEAN_MOTION":15.12822218,"ECCENTRICITY":0.00117732,"INCLINATION":98.8603,"RA_OF_ASC_NODE":96.8879,"ARG_OF_PERICENTER":223.037,"MEAN_ANOMALY":136.9936,"EPHEMERIS_TYPE":0,"CLASSIFICATION_TYPE":"U","NORAD_CAT_ID":42294,"ELEMENT_SET_NO":999,"REV_AT_EPOCH":55633,"BSTAR":0.010466292,"MEAN_MOTION_DOT":0.00188804,"MEAN_MOTION_DDOT":0}]
